{
  "type": "FeatureCollection",
  "features": [
    {
      "type": "Feature",
      "properties": {
        "norad_id": 66836,
        "name": "STARLINK-35838",
        "group": "last-30-days",
        "lat": -45.38900412052194,
        "lon": -178.47947457313802,
        "alt_km": 318.282738258471,
        "timestamp": "2025-12-11T05:00:25.076928+00:00",
        "meta_object_name": "STARLINK-35838",
        "meta_object_id": "2025-280R",
        "meta_epoch": "2025-12-10T18:00:02.000160",
        "meta_mean_motion": 15.87519795,
        "meta_eccentricity": 0.000371,
        "meta_inclination": 69.9928,
        "meta_ra_of_asc_node": 204.5182,
        "meta_arg_of_pericenter": 269.3013,
        "meta_mean_anomaly": 302.7614,
        "meta_ephemeris_type": 0,
        "meta_classification_type": "U",
        "meta_norad_cat_id": 66836,
        "meta_element_set_no": 999,
        "meta_rev_at_epoch": 258,
        "meta_bstar": -0.0071306,
        "meta_mean_motion_dot": -0.01656757,
        "meta_mean_motion_ddot": 0,
        "tle_line1": "1 66836U 25280R   25344.75002315 -.01656757  00000+0 -71306-2 0  9994",
        "tle_line2": "2 66836  69.9928 204.5182 0003710 269.3013 302.7614 15.87519795  2586"
      },
      "geometry": {
        "type": "Point",
        "coordinates": [
          -178.47947457313802,
          -45.38900412052194
        ]
      }
    },
    {
      "type": "Feature",
      "properties": {
        "norad_id": 66837,
        "name": "STARLINK-35729",
        "group": "last-30-days",
        "lat": -43.730287098829734,
        "lon": -177.20605774522562,
        "alt_km": 318.20665067276605,
        "timestamp": "2025-12-11T05:00:25.076938+00:00",
        "meta_object_name": "STARLINK-35729",
        "meta_object_id": "2025-280S",
        "meta_epoch": "2025-12-10T18:00:02.000160",
        "meta_mean_motion": 15.87561134,
        "meta_eccentricity": 0.000382,
        "meta_inclination": 69.9927,
        "meta_ra_of_asc_node": 204.5159,
        "meta_arg_of_pericenter": 266.7119,
        "meta_mean_anomaly": 307.1782,
        "meta_ephemeris_type": 0,
        "meta_classification_type": "U",
        "meta_norad_cat_id": 66837,
        "meta_element_set_no": 999,
        "meta_rev_at_epoch": 258,
        "meta_bstar": -0.0071396,
        "meta_mean_motion_dot": -0.01661686,
        "meta_mean_motion_ddot": 0,
        "tle_line1": "1 66837U 25280S   25344.75002315 -.01661686  00000+0 -71396-2 0  9991",
        "tle_line2": "2 66837  69.9927 204.5159 0003820 266.7119 307.1782 15.87561134  2589"
      },
      "geometry": {
        "type": "Point",
        "coordinates": [
          -177.20605774522562,
          -43.730287098829734
        ]
      }
    },
    {
      "type": "Feature",
      "properties": {
        "norad_id": 66838,
        "name": "STARLINK-35886",
        "group": "last-30-days",
        "lat": -40.56076038572075,
        "lon": -174.98264418615761,
        "alt_km": 317.9991841074434,
        "timestamp": "2025-12-11T05:00:25.076950+00:00",
        "meta_object_name": "STARLINK-35886",
        "meta_object_id": "2025-280T",
        "meta_epoch": "2025-12-10T18:00:02.000160",
        "meta_mean_motion": 15.87648363,
        "meta_eccentricity": 0.000369,
        "meta_inclination": 69.9926,
        "meta_ra_of_asc_node": 204.5117,
        "meta_arg_of_pericenter": 267.7878,
        "meta_mean_anomaly": 309.5468,
        "meta_ephemeris_type": 0,
        "meta_classification_type": "U",
        "meta_norad_cat_id": 66838,
        "meta_element_set_no": 999,
        "meta_rev_at_epoch": 258,
        "meta_bstar": -0.0071577,
        "meta_mean_motion_dot": -0.01671531,
        "meta_mean_motion_ddot": 0,
        "tle_line1": "1 66838U 25280T   25344.75002315 -.01671531  00000+0 -71577-2 0  9993",
        "tle_line2": "2 66838  69.9926 204.5117 0003690 267.7878 309.5468 15.87648363  2588"
      },
      "geometry": {
        "type": "Point",
        "coordinates": [
          -174.98264418615761,
          -40.56076038572075
        ]
      }
    },
    {
      "type": "Feature",
      "properties": {
        "norad_id": 66839,
        "name": "STARLINK-35717",
        "group": "last-30-days",
        "lat": -42.234141631881826,
        "lon": -176.12503879151902,
        "alt_km": 318.0132376236452,
        "timestamp": "2025-12-11T05:00:25.076959+00:00",
        "meta_object_name": "STARLINK-35717",
        "meta_object_id": "2025-280U",
        "meta_epoch": "2025-12-10T18:00:02.000160",
        "meta_mean_motion": 15.87600798,
        "meta_eccentricity": 0.0003768,
        "meta_inclination": 69.9927,
        "meta_ra_of_asc_node": 204.5137,
        "meta_arg_of_pericenter": 269.5917,
        "meta_mean_anomaly": 305.9288,
        "meta_ephemeris_type": 0,
        "meta_classification_type": "U",
        "meta_norad_cat_id": 66839,
        "meta_element_set_no": 999,
        "meta_rev_at_epoch": 258,
        "meta_bstar": -0.0071206,
        "meta_mean_motion_dot": -0.01660629,
        "meta_mean_motion_ddot": 0,
        "tle_line1": "1 66839U 25280U   25344.75002315 -.01660629  00000+0 -71206-2 0  9999",
        "tle_line2": "2 66839  69.9927 204.5137 0003768 269.5917 305.9288 15.87600798  2582"
      },
      "geometry": {
        "type": "Point",
        "coordinates": [
          -176.12503879151902,
          -42.234141631881826
        ]
      }
    },
    {
      "type": "Feature",
      "properties": {
        "norad_id": 66840,
        "name": "STARLINK-35837",
        "group": "last-30-days",
        "lat": -38.92687103135343,
        "lon": -173.92736439445505,
        "alt_km": 317.8591104841462,
        "timestamp": "2025-12-11T05:00:25.076971+00:00",
        "meta_object_name": "STARLINK-35837",
        "meta_object_id": "2025-280V",
        "meta_epoch": "2025-12-10T18:00:02.000160",
        "meta_mean_motion": 15.87691104,
        "meta_eccentricity": 0.0003714,
        "meta_inclination": 69.9929,
        "meta_ra_of_asc_node": 204.5098,
        "meta_arg_of_pericenter": 268.029,
        "meta_mean_anomaly": 311.0661,
        "meta_ephemeris_type": 0,
        "meta_classification_type": "U",
        "meta_norad_cat_id": 66840,
        "meta_element_set_no": 999,
        "meta_rev_at_epoch": 258,
        "meta_bstar": -0.0071656,
        "meta_mean_motion_dot": -0.01676267,
        "meta_mean_motion_ddot": 0,
        "tle_line1": "1 66840U 25280V   25344.75002315 -.01676267  00000+0 -71656-2 0  9995",
        "tle_line2": "2 66840  69.9929 204.5098 0003714 268.0290 311.0661 15.87691104  2585"
      },
      "geometry": {
        "type": "Point",
        "coordinates": [
          -173.92736439445505,
          -38.92687103135343
        ]
      }
    },
    {
      "type": "Feature",
      "properties": {
        "norad_id": 66841,
        "name": "STARLINK-35715",
        "group": "last-30-days",
        "lat": -37.225284710020965,
        "lon": -172.885755445927,
        "alt_km": 317.7092245493077,
        "timestamp": "2025-12-11T05:00:25.076981+00:00",
        "meta_object_name": "STARLINK-35715",
        "meta_object_id": "2025-280W",
        "meta_epoch": "2025-12-10T18:00:02.000160",
        "meta_mean_motion": 15.87733027,
        "meta_eccentricity": 0.0003766,
        "meta_inclination": 69.9927,
        "meta_ra_of_asc_node": 204.5074,
        "meta_arg_of_pericenter": 268.1486,
        "meta_mean_anomaly": 312.7726,
        "meta_ephemeris_type": 0,
        "meta_classification_type": "U",
        "meta_norad_cat_id": 66841,
        "meta_element_set_no": 999,
        "meta_rev_at_epoch": 258,
        "meta_bstar": -0.0071733,
        "meta_mean_motion_dot": -0.01680956,
        "meta_mean_motion_ddot": 0,
        "tle_line1": "1 66841U 25280W   25344.75002315 -.01680956  00000+0 -71733-2 0  9992",
        "tle_line2": "2 66841  69.9927 204.5074 0003766 268.1486 312.7726 15.87733027  2584"
      },
      "geometry": {
        "type": "Point",
        "coordinates": [
          -172.885755445927,
          -37.225284710020965
        ]
      }
    },
    {
      "type": "Feature",
      "properties": {
        "norad_id": 66842,
        "name": "STARLINK-35769",
        "group": "last-30-days",
        "lat": -35.67676855892735,
        "lon": -171.98185169468758,
        "alt_km": 317.54927421516004,
        "timestamp": "2025-12-11T05:00:25.076991+00:00",
        "meta_object_name": "STARLINK-35769",
        "meta_object_id": "2025-280X",
        "meta_epoch": "2025-12-10T18:00:02.000160",
        "meta_mean_motion": 15.87776553,
        "meta_eccentricity": 0.0003711,
        "meta_inclination": 69.9928,
        "meta_ra_of_asc_node": 204.5056,
        "meta_arg_of_pericenter": 269.4344,
        "meta_mean_anomaly": 313.1315,
        "meta_ephemeris_type": 0,
        "meta_classification_type": "U",
        "meta_norad_cat_id": 66842,
        "meta_element_set_no": 999,
        "meta_rev_at_epoch": 258,
        "meta_bstar": -0.0071714,
        "meta_mean_motion_dot": -0.01683694,
        "meta_mean_motion_ddot": 0,
        "tle_line1": "1 66842U 25280X   25344.75002315 -.01683694  00000+0 -71714-2 0  9994",
        "tle_line2": "2 66842  69.9928 204.5056 0003711 269.4344 313.1315 15.87776553  2583"
      },
      "geometry": {
        "type": "Point",
        "coordinates": [
          -171.98185169468758,
          -35.67676855892735
        ]
      }
    }
  ]
}